{
  "type": "FeatureCollection",
  "features": [
    {
      "type": "Feature",
      "properties": {
        "norad_id": 32363,
        "name": "FENGYUN 1C DEB",
        "group": "fengyun-1c-debris",
        "lat": 11.532070060883784,
        "lon": 115.995247397888,
        "alt_km": 388.5073304797834,
        "timestamp": "2025-12-03T15:48:03.356523+00:00",
        "meta_object_name": "FENGYUN 1C DEB",
        "meta_object_id": "1999-025CZG",
        "meta_epoch": "2025-11-30T07:48:11.428128",
        "meta_mean_motion": 15.44743653,
        "meta_eccentricity": 0.00643712,
        "meta_inclination": 98.3308,
        "meta_ra_of_asc_node": 290.4609,
        "meta_arg_of_pericenter": 184.9051,
        "meta_mean_anomaly": 175.1573,
        "meta_ephemeris_type": 0,
        "meta_classification_type": "U",
        "meta_norad_cat_id": 32363,
        "meta_element_set_no": 999,
        "meta_rev_at_epoch": 96616,
        "meta_bstar": 0.0017859799,
        "meta_mean_motion_dot": 0.00091049,
        "meta_mean_motion_ddot": 0,
        "tle_line1": "1 32363U 99025CZG 25334.32513227  .00091049  00000+0  17860-2 0  9990",
        "tle_line2": "2 32363  98.3308 290.4609 0064371 184.9051 175.1573 15.44743653966168"
      },
      "geometry": {
        "type": "Point",
        "coordinates": [
          115.995247397888,
          11.532070060883784
        ]
      }
    },
    {
      "type": "Feature",
      "properties": {
        "norad_id": 32364,
        "name": "FENGYUN 1C DEB",
        "group": "fengyun-1c-debris",
        "lat": 27.768751657871157,
        "lon": 172.84650155458215,
        "alt_km": 940.6440123823177,
        "timestamp": "2025-12-03T15:48:03.356532+00:00",
        "meta_object_name": "FENGYUN 1C DEB",
        "meta_object_id": "1999-025CZH",
        "meta_epoch": "2025-11-29T08:05:37.624992",
        "meta_mean_motion": 14.14317962,
        "meta_eccentricity": 0.01349396,
        "meta_inclination": 98.2918,
        "meta_ra_of_asc_node": 173.2369,
        "meta_arg_of_pericenter": 222.8285,
        "meta_mean_anomaly": 136.2316,
        "meta_ephemeris_type": 0,
        "meta_classification_type": "U",
        "meta_norad_cat_id": 32364,
        "meta_element_set_no": 999,
        "meta_rev_at_epoch": 63519,
        "meta_bstar": 0.0022712328,
        "meta_mean_motion_dot": 4.699e-05,
        "meta_mean_motion_ddot": 0,
        "tle_line1": "1 32364U 99025CZH 25333.33724103  .00004699  00000+0  22712-2 0  9995",
        "tle_line2": "2 32364  98.2918 173.2369 0134939 222.8285 136.2316 14.14317962635190"
      },
      "geometry": {
        "type": "Point",
        "coordinates": [
          172.84650155458215,
          27.768751657871157
        ]
      }
    },
    {
      "type": "Feature",
      "properties": {
        "norad_id": 32366,
        "name": "FENGYUN 1C DEB",
        "group": "fengyun-1c-debris",
        "lat": 73.31246373880867,
        "lon": -54.423427945659476,
        "alt_km": 936.1650047563007,
        "timestamp": "2025-12-03T15:48:03.356541+00:00",
        "meta_object_name": "FENGYUN 1C DEB",
        "meta_object_id": "1999-025CZK",
        "meta_epoch": "2025-11-30T14:15:29.013120",
        "meta_mean_motion": 14.13711554,
        "meta_eccentricity": 0.0135391,
        "meta_inclination": 96.7752,
        "meta_ra_of_asc_node": 99.8876,
        "meta_arg_of_pericenter": 303.6613,
        "meta_mean_anomaly": 55.1713,
        "meta_ephemeris_type": 0,
        "meta_classification_type": "U",
        "meta_norad_cat_id": 32366,
        "meta_element_set_no": 999,
        "meta_rev_at_epoch": 93032,
        "meta_bstar": 0.0013408,
        "meta_mean_motion_dot": 2.737e-05,
        "meta_mean_motion_ddot": 0,
        "tle_line1": "1 32366U 99025CZK 25334.59408580  .00002737  00000+0  13408-2 0  9997",
        "tle_line2": "2 32366  96.7752  99.8876 0135391 303.6613  55.1713 14.13711554930320"
      },
      "geometry": {
        "type": "Point",
        "coordinates": [
          -54.423427945659476,
          73.31246373880867
        ]
      }
    },
    {
      "type": "Feature",
      "properties": {
        "norad_id": 32372,
        "name": "FENGYUN 1C DEB",
        "group": "fengyun-1c-debris",
        "lat": -72.59291506323761,
        "lon": 17.14756212924486,
        "alt_km": 1471.329612006307,
        "timestamp": "2025-12-03T15:48:03.356550+00:00",
        "meta_object_name": "FENGYUN 1C DEB",
        "meta_object_id": "1999-025CZR",
        "meta_epoch": "2025-11-30T21:48:44.835264",
        "meta_mean_motion": 13.3530275,
        "meta_eccentricity": 0.04574659,
        "meta_inclination": 97.31,
        "meta_ra_of_asc_node": 219.3372,
        "meta_arg_of_pericenter": 70.903,
        "meta_mean_anomaly": 294.1051,
        "meta_ephemeris_type": 0,
        "meta_classification_type": "U",
        "meta_norad_cat_id": 32372,
        "meta_element_set_no": 999,
        "meta_rev_at_epoch": 59982,
        "meta_bstar": 0.0023360398,
        "meta_mean_motion_dot": 2.126e-05,
        "meta_mean_motion_ddot": 0,
        "tle_line1": "1 32372U 99025CZR 25334.90885226  .00002126  00000+0  23360-2 0  9995",
        "tle_line2": "2 32372  97.3100 219.3372 0457465  70.9030 294.1051 13.35302750599820"
      },
      "geometry": {
        "type": "Point",
        "coordinates": [
          17.14756212924486,
          -72.59291506323761
        ]
      }
    },
    {
      "type": "Feature",
      "properties": {
        "norad_id": 32409,
        "name": "FENGYUN 1C DEB",
        "group": "fengyun-1c-debris",
        "lat": 15.265229168827663,
        "lon": 137.2084633432046,
        "alt_km": 670.3466820454942,
        "timestamp": "2025-12-03T15:48:03.356559+00:00",
        "meta_object_name": "FENGYUN 1C DEB",
        "meta_object_id": "1999-025CZV",
        "meta_epoch": "2025-11-28T17:00:53.733600",
        "meta_mean_motion": 14.75669167,
        "meta_eccentricity": 0.00396143,
        "meta_inclination": 99.568,
        "meta_ra_of_asc_node": 133.9986,
        "meta_arg_of_pericenter": 196.5899,
        "meta_mean_anomaly": 179.8691,
        "meta_ephemeris_type": 0,
        "meta_classification_type": "U",
        "meta_norad_cat_id": 32409,
        "meta_element_set_no": 999,
        "meta_rev_at_epoch": 58632,
        "meta_bstar": 0.001812585,
        "meta_mean_motion_dot": 0.00012494,
        "meta_mean_motion_ddot": 0,
        "tle_line1": "1 32409U 99025CZV 25332.70895525  .00012494  00000+0  18126-2 0  9998",
        "tle_line2": "2 32409  99.5680 133.9986 0039614 196.5899 179.8691 14.75669167586323"
      },
      "geometry": {
        "type": "Point",
        "coordinates": [
          137.2084633432046,
          15.265229168827663
        ]
      }
    },
    {
      "type": "Feature",
      "properties": {
        "norad_id": 32411,
        "name": "FENGYUN 1C DEB",
        "group": "fengyun-1c-debris",
        "lat": -21.246534207429487,
        "lon": -100.50812340768526,
        "alt_km": 824.0085662204401,
        "timestamp": "2025-12-03T15:48:03.356568+00:00",
        "meta_object_name": "FENGYUN 1C DEB",
        "meta_object_id": "1999-025CZX",
        "meta_epoch": "2025-11-24T13:52:19.422048",
        "meta_mean_motion": 14.09760765,
        "meta_eccentricity": 0.01249082,
        "meta_inclination": 98.4278,
        "meta_ra_of_asc_node": 247.681,
        "meta_arg_of_pericenter": 67.9682,
        "meta_mean_anomaly": 293.4704,
        "meta_ephemeris_type": 0,
        "meta_classification_type": "U",
        "meta_norad_cat_id": 32411,
        "meta_element_set_no": 999,
        "meta_rev_at_epoch": 65558,
        "meta_bstar": 0.00046259711,
        "meta_mean_motion_dot": 8.34e-06,
        "meta_mean_motion_ddot": 0,
        "tle_line1": "1 32411U 99025CZX 25328.57800257  .00000834  00000+0  46260-3 0  9995",
        "tle_line2": "2 32411  98.4278 247.6810 0124908  67.9682 293.4704 14.09760765655584"
      },
      "geometry": {
        "type": "Point",
        "coordinates": [
          -100.50812340768526,
          -21.246534207429487
        ]
      }
    },
    {
      "type": "Feature",
      "properties": {
        "norad_id": 32414,
        "name": "FENGYUN 1C DEB",
        "group": "fengyun-1c-debris",
        "lat": 20.51864472797808,
        "lon": -128.32010782372382,
        "alt_km": 853.5215915254666,
        "timestamp": "2025-12-03T15:48:03.356577+00:00",
        "meta_object_name": "FENGYUN 1C DEB",
        "meta_object_id": "1999-025DAA",
        "meta_epoch": "2025-12-02T22:07:30.753408",
        "meta_mean_motion": 14.18324916,
        "meta_eccentricity": 0.00452816,
        "meta_inclination": 98.8592,
        "meta_ra_of_asc_node": 47.5985,
        "meta_arg_of_pericenter": 27.2148,
        "meta_mean_anomaly": 333.1386,
        "meta_ephemeris_type": 0,
        "meta_classification_type": "U",
        "meta_norad_cat_id": 32414,
        "meta_element_set_no": 999,
        "meta_rev_at_epoch": 93593,
        "meta_bstar": 0.0017856615,
        "meta_mean_motion_dot": 3.674e-05,
        "meta_mean_motion_ddot": 0,
        "tle_line1": "1 32414U 99025DAA 25336.92188372  .00003674  00000+0  17857-2 0  9997",
        "tle_line2": "2 32414  98.8592  47.5985 0045281  27.2148 333.1386 14.18324916935934"
      },
      "geometry": {
        "type": "Point",
        "coordinates": [
          -128.32010782372382,
          20.51864472797808
        ]
      }
    }
  ]
}